{"type": "FeatureCollection", "features": [ {"type": "Feature", "properties": {"norad_id": 40534, "name": "GPS BIIF-9  (PRN 26)", "group": "gps-ops", "lat": 25.345316647585904, "lon": -126.87735066656533, "alt_km": 19897.346659524683, "timestamp": "2025-12-01T03:58:49.191398+00:00", "meta": {"OBJECT_NAME": "GPS BIIF-9  (PRN 26)", "OBJECT_ID": "2015-013A", "EPOCH": "2025-11-30T14:57:40.946112", "MEAN_MOTION": 2.00563248, "ECCENTRICITY": 0.0106501, "INCLINATION": 53.1999, "RA_OF_ASC_NODE": 212.3921, "ARG_OF_PERICENTER": 38.1767, "MEAN_ANOMALY": 322.6592, "EPHEMERIS_TYPE": 0, "CLASSIFICATION_TYPE": "U", "NORAD_CAT_ID": 40534, "ELEMENT_SET_NO": 999, "REV_AT_EPOCH": 7784, "BSTAR": 0, "MEAN_MOTION_DOT": 6.2e-07, "MEAN_MOTION_DDOT": 0, "GROUP": "gps-ops"}, "tle": {"line1": "1 40534U 15013A   25334.62339058  .00000062  00000+0  00000+0 0  9995", "line2": "2 40534  53.1999 212.3921 0106501  38.1767 322.6592  2.00563248 77844"}}, "geometry": {"type": "Point", "coordinates": [-126.87735066656533, 25.345316647585904]}}, {"type": "Feature", "properties": {"norad_id": 40730, "name": "GPS BIIF-10 (PRN 08)", "group": "gps-ops", "lat": -53.90309183949589, "lon": -167.00454434031886, "alt_km": 20294.08725161521, "timestamp": "2025-12-01T03:58:49.191412+00:00", "meta": {"OBJECT_NAME": "GPS BIIF-10 (PRN 08)", "OBJECT_ID": "2015-033A", "EPOCH": "2025-11-30T18:50:04.628256", "MEAN_MOTION": 2.00566115, "ECCENTRICITY": 0.0110215, "INCLINATION": 54.1411, "RA_OF_ASC_NODE": 275.2649, "ARG_OF_PERICENTER": 26.5168, "MEAN_ANOMALY": 334.0421, "EPHEMERIS_TYPE": 0, "CLASSIFICATION_TYPE": "U", "NORAD_CAT_ID": 40730, "ELEMENT_SET_NO": 999, "REV_AT_EPOCH": 7601, "BSTAR": 0, "MEAN_MOTION_DOT": -3.8e-07, "MEAN_MOTION_DDOT": 0, "GROUP": "gps-ops"}, "tle": {"line1": "1 40730U 15033A   25334.78477579 -.00000038  00000+0  00000+0 0  9997", "line2": "2 40730  54.1411 275.2649 0110215  26.5168 334.0421  2.00566115 76012"}}, "geometry": {"type": "Point", "coordinates": [-167.00454434031886, -53.90309183949589]}}, {"type": "Feature", "properties": {"norad_id": 41019, "name": "GPS BIIF-11 (PRN 10)", "group": "gps-ops", "lat": -40.8733314470645, "lon": -107.09938040665673, "alt_km": 19893.152744766187, "timestamp": "2025-12-01T03:58:49.191430+00:00", "meta": {"OBJECT_NAME": "GPS BIIF-11 (PRN 10)", "OBJECT_ID": "2015-062A", "EPOCH": "2025-11-29T20:19:38.445600", "MEAN_MOTION": 2.00566933, "ECCENTRICITY": 0.01104348, "INCLINATION": 56.8229, "RA_OF_ASC_NODE": 38.5012, "ARG_OF_PERICENTER": 229.5952, "MEAN_ANOMALY": 129.4841, "EPHEMERIS_TYPE": 0, "CLASSIFICATION_TYPE": "U", "NORAD_CAT_ID": 41019, "ELEMENT_SET_NO": 999, "REV_AT_EPOCH": 7383, "BSTAR": 0, "MEAN_MOTION_DOT": -6.2e-07, "MEAN_MOTION_DDOT": 0, "GROUP": "gps-ops"}, "tle": {"line1": "1 41019U 15062A   25333.84697275 -.00000062  00000+0  00000+0 0  9990", "line2": "2 41019  56.8229  38.5012 0110434 229.5952 129.4841  2.00566933 73839"}}, "geometry": {"type": "Point", "coordinates": [-107.09938040665673, -40.8733314470645]}}, {"type": "Feature", "properties": {"norad_id": 41328, "name": "GPS BIIF-12 (PRN 32)", "group": "gps-ops", "lat": 7.377568383950551, "lon": -87.82341626357113, "alt_km": 20105.73171452148, "timestamp": "2025-12-01T03:58:49.191445+00:00", "meta": {"OBJECT_NAME": "GPS BIIF-12 (PRN 32)", "OBJECT_ID": "2016-007A", "EPOCH": "2025-11-29T22:18:04.287456", "MEAN_MOTION": 2.00561276, "ECCENTRICITY": 0.00915445, "INCLINATION": 55.3987, "RA_OF_ASC_NODE": 97.3656, "ARG_OF_PERICENTER": 243.2609, "MEAN_ANOMALY": 115.7881, "EPHEMERIS_TYPE": 0, "CLASSIFICATION_TYPE": "U", "NORAD_CAT_ID": 41328, "ELEMENT_SET_NO": 999, "REV_AT_EPOCH": 7184, "BSTAR": 0, "MEAN_MOTION_DOT": 3.3e-07, "MEAN_MOTION_DDOT": 0, "GROUP": "gps-ops"}, "tle": {"line1": "1 41328U 16007A   25333.92921629  .00000033  00000+0  00000+0 0  9992", "line2": "2 41328  55.3987  97.3656 0091544 243.2609 115.7881  2.00561276 71842"}}, "geometry": {"type": "Point", "coordinates": [-87.82341626357113, 7.377568383950551]}}, {"type": "Feature", "properties": {"norad_id": 43873, "name": "GPS BIII-1  (PRN 04)", "group": "gps-ops", "lat": 49.192624589585606, "lon": 152.57458936625176, "alt_km": 20237.509412921612, "timestamp": "2025-12-01T03:58:49.191507+00:00", "meta": {"OBJECT_NAME": "GPS BIII-1  (PRN 04)", "OBJECT_ID": "2018-109A", "EPOCH": "2025-11-30T14:08:21.287328", "MEAN_MOTION": 2.00553142, "ECCENTRICITY": 0.0037182, "INCLINATION": 55.5595, "RA_OF_ASC_NODE": 100.0271, "ARG_OF_PERICENTER": 194.4183, "MEAN_ANOMALY": 176.096, "EPHEMERIS_TYPE": 0, "CLASSIFICATION_TYPE": "U", "NORAD_CAT_ID": 43873, "ELEMENT_SET_NO": 999, "REV_AT_EPOCH": 5109, "BSTAR": 0, "MEAN_MOTION_DOT": 3.3e-07, "MEAN_MOTION_DDOT": 0, "GROUP": "gps-ops"}, "tle": {"line1": "1 43873U 18109A   25334.58913527  .00000033  00000+0  00000+0 0  9995", "line2": "2 43873  55.5595 100.0271 0037182 194.4183 176.0960  2.00553142 51099"}}, "geometry": {"type": "Point", "coordinates": [152.57458936625176, 49.192624589585606]}}, {"type": "Feature", "properties": {"norad_id": 44506, "name": "GPS BIII-2  (PRN 18)", "group": "gps-ops", "lat": -29.125644668269402, "lon": -43.31583489337391, "alt_km": 20274.155785172465, "timestamp": "2025-12-01T03:58:49.191530+00:00", "meta": {"OBJECT_NAME": "GPS BIII-2  (PRN 18)", "OBJECT_ID": "2019-056A", "EPOCH": "2025-11-30T17:20:38.940288", "MEAN_MOTION": 2.00565588, "ECCENTRICITY": 0.0057804, "INCLINATION": 55.7257, "RA_OF_ASC_NODE": 339.0309, "ARG_OF_PERICENTER": 198.3597, "MEAN_ANOMALY": 165.0358, "EPHEMERIS_TYPE": 0, "CLASSIFICATION_TYPE": "U", "NORAD_CAT_ID": 44506, "ELEMENT_SET_NO": 999, "REV_AT_EPOCH": 4609, "BSTAR": 0, "MEAN_MOTION_DOT": -5.3e-07, "MEAN_MOTION_DDOT": 0, "GROUP": "gps-ops"}, "tle": {"line1": "1 44506U 19056A   25334.72267292 -.00000053  00000+0  00000+0 0  9991", "line2": "2 44506  55.7257 339.0309 0057804 198.3597 165.0358  2.00565588 46091"}}, "geometry": {"type": "Point", "coordinates": [-43.31583489337391, -29.125644668269402]}}, {"type": "Feature", "properties": {"norad_id": 45854, "name": "GPS BIII-3  (PRN 23)", "group": "gps-ops", "lat": -56.51128652326031, "lon": -56.50344724566979, "alt_km": 20120.666018492695, "timestamp": "2025-12-01T03:58:49.191580+00:00", "meta": {"OBJECT_NAME": "GPS BIII-3  (PRN 23)", "OBJECT_ID": "2020-041A", "EPOCH": "2025-11-30T19:11:54.733920", "MEAN_MOTION": 2.0056184, "ECCENTRICITY": 0.0060224, "INCLINATION": 56.5386, "RA_OF_ASC_NODE": 36.6517, "ARG_OF_PERICENTER": 202.8806, "MEAN_ANOMALY": 160.5748, "EPHEMERIS_TYPE": 0, "CLASSIFICATION_TYPE": "U", "NORAD_CAT_ID": 45854, "ELEMENT_SET_NO": 999, "REV_AT_EPOCH": 4006, "BSTAR": 0, "MEAN_MOTION_DOT": -6.5e-07, "MEAN_MOTION_DDOT": 0, "GROUP": "gps-ops"}, "tle": {"line1": "1 45854U 20041A   25334.79993905 -.00000065  00000+0  00000+0 0  9991", "line2": "2 45854  56.5386  36.6517 0060224 202.8806 160.5748  2.00561840 40066"}}, "geometry": {"type": "Point", "coordinates": [-56.50344724566979, -56.51128652326031]}}, {"type": "Feature", "properties": {"norad_id": 46826, "name": "GPS BIII-4  (PRN 14)", "group": "gps-ops", "lat": -43.74840024543377, "lon": 82.81395094071303, "alt_km": 20046.491456269625, "timestamp": "2025-12-01T03:58:49.191621+00:00", "meta": {"OBJECT_NAME": "GPS BIII-4  (PRN 14)", "OBJECT_ID": "2020-078A", "EPOCH": "2025-11-12T03:01:29.190720", "MEAN_MOTION": 2.00567032, "ECCENTRICITY": 0.0063911, "INCLINATION": 54.0223, "RA_OF_ASC_NODE": 219.5836, "ARG_OF_PERICENTER": 203.4985, "MEAN_ANOMALY": 326.7754, "EPHEMERIS_TYPE": 0, "CLASSIFICATION_TYPE": "U", "NORAD_CAT_ID": 46826, "ELEMENT_SET_NO": 999, "REV_AT_EPOCH": 3715, "BSTAR": 0, "MEAN_MOTION_DOT": -3.4e-07, "MEAN_MOTION_DDOT": 0, "GROUP": "gps-ops"}, "tle": {"line1": "1 46826U 20078A   25316.12603230 -.00000034  00000+0  00000+0 0  9993", "line2": "2 46826  54.0223 219.5836 0063911 203.4985 326.7754  2.00567032 37154"}}, "geometry": {"type": "Point", "coordinates": [82.81395094071303, -43.74840024543377]}}, {"type": "Feature", "properties": {"norad_id": 48859, "name": "GPS BIII-5  (PRN 11)", "group": "gps-ops", "lat": 47.710256447897116, "lon": 30.140301249854094, "alt_km": 20241.69241402521, "timestamp": "2025-12-01T03:58:49.191738+00:00", "meta": {"OBJECT_NAME": "GPS BIII-5  (PRN 11)", "OBJECT_ID": "2021-054A", "EPOCH": "2025-11-30T17:12:22.002912", "MEAN_MOTION": 2.00553931, "ECCENTRICITY": 0.002465, "INCLINATION": 55.2605, "RA_OF_ASC_NODE": 340.4377, "ARG_OF_PERICENTER": 232.9586, "MEAN_ANOMALY": 227.195, "EPHEMERIS_TYPE": 0, "CLASSIFICATION_TYPE": "U", "NORAD_CAT_ID": 48859, "ELEMENT_SET_NO": 999, "REV_AT_EPOCH": 3277, "BSTAR": 0, "MEAN_MOTION_DOT": -5.5e-07, "MEAN_MOTION_DDOT": 0, "GROUP": "gps-ops"}, "tle": {"line1": "1 48859U 21054A   25334.71692133 -.00000055  00000+0  00000+0 0  9994", "line2": "2 48859  55.2605 340.4377 0024650 232.9586 227.1950  2.00553931 32772"}}, "geometry": {"type": "Point", "coordinates": [30.140301249854094, 47.710256447897116]}}, {"type": "Feature", "properties": {"norad_id": 55268, "name": "GPS BIII-6  (PRN 28)", "group": "gps-ops", "lat": 51.80145974683293, "lon": -86.23956080325087, "alt_km": 20179.401584293344, "timestamp": "2025-12-01T03:58:49.192004+00:00", "meta": {"OBJECT_NAME": "GPS BIII-6  (PRN 28)", "OBJECT_ID": "2023-009A", "EPOCH": "2025-11-30T00:32:38.315616", "MEAN_MOTION": 2.00556632, "ECCENTRICITY": 0.00034826, "INCLINATION": 55.1054, "RA_OF_ASC_NODE": 156.3454, "ARG_OF_PERICENTER": 359.6796, "MEAN_ANOMALY": 1.4566, "EPHEMERIS_TYPE": 0, "CLASSIFICATION_TYPE": "U", "NORAD_CAT_ID": 55268, "ELEMENT_SET_NO": 999, "REV_AT_EPOCH": 2125, "BSTAR": 0, "MEAN_MOTION_DOT": 1.29e-06, "MEAN_MOTION_DDOT": 0, "GROUP": "gps-ops"}, "tle": {"line1": "1 55268U 23009A   25334.02266569  .00000129  00000+0  00000+0 0  9993", "line2": "2 55268  55.1054 156.3454 0003482 359.6796   1.4566  2.00556632 21259"}}, "geometry": {"type": "Point", "coordinates": [-86.23956080325087, 51.80145974683293]}}]}